[{"OBJECT_NAME":"STARLINK-36557","OBJECT_ID":"2026-012H","EPOCH":"2026-03-09T23:10:02.701920","MEAN_MOTION":15.27593449,"ECCENTRICITY":0.00012302,"INCLINATION":42.999,"RA_OF_ASC_NODE":312.8687,"ARG_OF_PERICENTER":254.5473,"MEAN_ANOMALY":105.5243,"EPHEMERIS_TYPE":0,"CLASSIFICATION_TYPE":"U","NORAD_CAT_ID":67500,"ELEMENT_SET_NO":999,"REV_AT_EPOCH":780,"BSTAR":0.0010436587,"MEAN_MOTION_DOT":0.0002858,"MEAN_MOTION_DDOT":0},{"OBJECT_NAME":"CZ-6A R\/B","OBJECT_ID":"2023-168B","EPOCH":"2026-03-09T21:13:08.722272","MEAN_MOTION":15.16100791,"ECCENTRICITY":0.00607667,"INCLINATION":97.7542,"RA_OF_ASC_NODE":104.7688,"ARG_OF_PERICENTER":339.2379,"MEAN_ANOMALY":20.6386,"EPHEMERIS_TYPE":0,"CLASSIFICATION_TYPE":"U","NORAD_CAT_ID":58200,"ELEMENT_SET_NO":999,"REV_AT_EPOCH":12979,"BSTAR":0.00029693841,"MEAN_MOTION_DOT":5.919e-5,"MEAN_MOTION_DDOT":0}]
